[
    {
        "Altitude(m)": 610405.3499927284,
        "Argument of Periapsis(deg)": 0.0,
        "Eccentricity": 0.0,
        "Inclination(deg)": 60.0,
        "Latitude(deg)": 52.111345954393265,
        "Longitude(deg)": 92.47741741702268,
        "Mean Anomaly(deg)": 114.5455,
        "RAAN(deg)": 60.0,
        "Satellite Name": "Test1 271",
        "Satellite Number": 271,
        "Semi-Major Axis(m)": 6980739.136638005,
        "Time(s)": 0
    },
    {
        "Altitude(m)": 610321.9230551138,
        "Argument of Periapsis(deg)": 0.00010418945913296404,
        "Eccentricity": 0.0,
        "Inclination(deg)": 60.0,
        "Latitude(deg)": 51.746060934936324,
        "Longitude(deg)": 93.2463125106874,
        "Mean Anomaly(deg)": 115.16560614546184,
        "RAAN(deg)": 59.99957995086026,
        "Satellite Name": "Test1 271",
        "Satellite Number": 271,
        "Semi-Major Axis(m)": 6980739.136638005,
        "Time(s)": 10
    }
]